DMSP 5D-3 F16 (USA 172) 
1 28054U 03048A   25279.57522860  .00000211  00000+0  13401-3 0  9999
2 28054  99.0113 296.4787 0007903 139.2232 320.7526 14.14388823133631
METEOSAT-9 (MSG-2)      
1 28912U 05049B   25279.50366208  .00000133  00000+0  00000+0 0  9990
2 28912   8.7794  56.5911 0002663 186.6429 359.2005  1.00270889  4462
DMSP 5D-3 F17 (USA 191) 
1 29522U 06050A   25279.51964939  .00000267  00000+0  16080-3 0  9994
2 29522  98.7419 286.2969 0011112  63.5661 296.6652 14.14876563976547
FENGYUN 3A              
1 32958U 08026A   25279.44080489  .00000193  00000+0  11197-3 0  9999
2 32958  98.6574 220.4255 0009411 133.6534 226.5424 14.19482363899404
GOES 14                 
1 35491U 09033A   25279.54448227 -.00000064  00000+0  00000+0 0  9997
2 35491   1.0189  86.2365 0003994 116.6954 260.1245  1.00270364  4052
DMSP 5D-3 F18 (USA 210) 
1 35951U 09057A   25279.53838294  .00000354  00000+0  20715-3 0  9990
2 35951  98.8744 256.3029 0009930 251.2047 108.8049 14.14714845823725
EWS-G2 (GOES 15)        
1 36411U 10008A   25279.54033249  .00000041  00000+0  00000+0 0  9992
2 36411   0.6352  85.5280 0005656 144.0880  41.7393  1.00272690 57093
COMS 1                  
1 36744U 10032A   25279.44866323 -.00000338  00000+0  00000+0 0  9994
2 36744   4.1721  78.6724 0000956 124.8513 101.5270  1.00271677 48547
FENGYUN 3B              
1 37214U 10059A   25279.57741873  .00000136  00000+0  93764-4 0  9991
2 37214  99.0016 319.0482 0022103 182.7284 331.5236 14.14762812771566
SUOMI NPP               
1 37849U 11061A   25279.59131314  .00000174  00000+0  10324-3 0  9996
2 37849  98.7653 217.5741 0001534  25.2980 334.8271 14.19526603722463
METEOSAT-10 (MSG-3)     
1 38552U 12035B   25279.28061581  .00000004  00000+0  00000+0 0  9992
2 38552   4.0647  61.8462 0000629 195.7673 219.0996  1.00277791 48314
METOP-B                 
1 38771U 12049A   25279.56726962  .00000207  00000+0  11500-3 0  9998
2 38771  98.6908 330.6285 0002422  24.8162 335.3132 14.21372265677236
INSAT-3D                
1 39216U 13038B   25279.50180409 -.00000335  00000+0  00000+0 0  9998
2 39216   1.2645  85.8476 0001803 135.6349 104.1511  1.00270948 44532
FENGYUN 3C              
1 39260U 13052A   25279.53057109  .00000162  00000+0  10373-3 0  9991
2 39260  98.4681 260.5148 0015440  37.3323 322.8922 14.15664598622679
METEOR-M 2              
1 40069U 14037A   25279.52131207  .00000242  00000+0  13026-3 0  9992
2 40069  98.4819 259.7069 0006805  59.5466 300.6383 14.21346298583281
HIMAWARI-8              
1 40267U 14060A   25279.50633804 -.00000273  00000+0  00000+0 0  9995
2 40267   0.0165 172.9954 0001024  25.8847 139.5020  1.00271732 40200
FENGYUN 2G              
1 40367U 14090A   25279.60152375 -.00000295  00000+0  00000+0 0  9993
2 40367   4.9931  75.8839 0003783 178.2924  77.5337  1.00269903 39455
METEOSAT-11 (MSG-4)     
1 40732U 15034A   25279.28243582  .00000070  00000+0  00000+0 0  9993
2 40732   2.5632  72.1596 0000755 159.2992 255.0019  1.00279943  4674
ELEKTRO-L 2             
1 41105U 15074A   25279.27758247 -.00000109  00000+0  00000+0 0  9994
2 41105   6.0496  73.6348 0002828 177.1360 209.8452  1.00272608 35963
INSAT-3DR               
1 41752U 16054A   25279.55357985 -.00000075  00000+0  00000+0 0  9998
2 41752   0.1048  86.8597 0012869 176.8160  25.0918  1.00270879 33276
HIMAWARI-9              
1 41836U 16064A   25278.95140919 -.00000272  00000+0  00000+0 0  9991
2 41836   0.0303  96.0866 0001501 118.6062 283.4821  1.00276161 32665
GOES 16                 
1 41866U 16071A   25279.54517560 -.00000089  00000+0  00000+0 0  9994
2 41866   0.0935  74.1820 0002603 148.3506 244.5105  1.00271326 32563
FENGYUN 4A              
1 41882U 16077A   25279.58308591 -.00000353  00000+0  00000+0 0  9998
2 41882   1.6726  82.9775 0005730 158.8252 107.3977  1.00274842 32389
CYGFM05                 
1 41884U 16078A   25278.99503839  .00019458  00000+0  41185-3 0  9995
2 41884  34.9588 128.4824 0010520 277.3330  82.6195 15.44132874489276
CYGFM04                 
1 41885U 16078B   25279.57240676  .00022901  00000+0  44769-3 0  9996
2 41885  34.9338 101.2035 0009582 307.5008  52.4842 15.46434018489526
CYGFM02                 
1 41886U 16078C   25279.56955710  .00023625  00000+0  44203-3 0  9995
2 41886  34.9425 100.4773 0011011 304.4979  55.4702 15.47675980489644
CYGFM01                 
1 41887U 16078D   25278.88478379  .00052368  00000+0  10761-2 0  9998
2 41887  34.9419 132.0493 0010026 267.5274  92.4298 15.44838577489191
CYGFM08                 
1 41888U 16078E   25279.57016554  .00021577  00000+0  43234-3 0  9999
2 41888  34.9447 111.2911 0011692 294.5405  65.4097 15.45703954489528
CYGFM07                 
1 41890U 16078G   25279.59616744  .00021549  00000+0  42207-3 0  9999
2 41890  34.9466 100.4545 0009937 312.8211  47.1675 15.46384877489544
CYGFM03                 
1 41891U 16078H   25279.55702532  .00022848  00000+0  45210-3 0  9997
2 41891  34.9418 102.5878 0008933 299.3262  60.6566 15.46090667489511
FENGYUN 3D              
1 43010U 17072A   25279.57241060  .00000171  00000+0  10267-3 0  9992
2 43010  98.9775 244.9119 0002474  65.7556 294.3878 14.19653000409009
NOAA 20 (JPSS-1)        
1 43013U 17073A   25279.53538718  .00000152  00000+0  92696-4 0  9997
2 43013  98.7480 216.6051 0000655  25.6811 334.4398 14.19569490408485
GOES 17                 
1 43226U 18022A   25279.54820895 -.00000180  00000+0  00000+0 0  9994
2 43226   0.2799  91.0778 0002853 155.9410 236.3077  1.00270242 27882
FENGYUN 2H              
1 43491U 18050A   25279.61881075 -.00000121  00000+0  00000+0 0  9999
2 43491   2.3725  82.0619 0003089 138.9671  96.2685  1.00267153 26899
METOP-C                 
1 43689U 18087A   25279.53053408  .00000211  00000+0  11651-3 0  9997
2 43689  98.7029 338.2956 0001684 139.4412 220.6891 14.21503603358791
GEO-KOMPSAT-2A          
1 43823U 18100A   25279.50180412 -.00000342  00000+0  00000+0 0  9994
2 43823   0.0541  43.8104 0001505  95.7280 184.8063  1.00270724 25082
METEOR-M2 2             
1 44387U 19038A   25279.50669524  .00000218  00000+0  11417-3 0  9996
2 44387  98.8889 258.4363 0002078  55.6873 304.4501 14.24249177325187
ARKTIKA-M 1             
1 47719U 21016A   25273.30456647 -.00000067  00000+0  00000+0 0  9994
2 47719  63.1648  93.9278 7163271 268.8764  16.0765  2.00626972 33571
FENGYUN 3E              
1 49008U 21062A   25279.51787243  .00000037  00000+0  38055-4 0  9998
2 49008  98.7478 280.8298 0002718  94.4809 265.6677 14.19866553220589
GOES 18                 
1 51850U 22021A   25279.52325641  .00000000  00000+0  00000+0 0  9997
2 51850   0.0150 100.9192 0000865 157.7412 168.1318  1.00270051  4047
NOAA 21 (JPSS-2)        
1 54234U 22150A   25279.43048587  .00000182  00000+0  10720-3 0  9995
2 54234  98.7343 216.6140 0001616 151.8159 208.3105 14.19569016150544
METEOSAT-12 (MTG-I1)    
1 54743U 22170C   25279.28044248 -.00000005  00000+0  00000+0 0  9996
2 54743   0.6828  28.2446 0001639 134.0966 313.4152  1.00271540 10430
TIANMU-1 03             
1 55973U 23039A   25279.48575037  .00015942  00000+0  42515-3 0  9990
2 55973  97.5101  80.4050 0002781 301.6196  58.4777 15.38229147141719
TIANMU-1 04             
1 55974U 23039B   25279.47870015  .00016288  00000+0  43032-3 0  9993
2 55974  97.5032  79.6196 0003510 294.2438  65.8440 15.38512097141719
TIANMU-1 05             
1 55975U 23039C   25279.52275797  .00016214  00000+0  43280-3 0  9990
2 55975  97.5078  80.1509 0002798 330.1508  29.9577 15.38198004141709
TIANMU-1 06             
1 55976U 23039D   25279.48344183  .00016030  00000+0  42263-3 0  9998
2 55976  97.5090  80.5225 0003093 321.6321  38.4703 15.38580992141718
FENGYUN 3G              
1 56232U 23055A   25279.43293819  .00035994  00000+0  56191-3 0  9991
2 56232  49.9946 214.5758 0009079 224.2549 135.7693 15.53377117140566
METEOR-M2 3             
1 57166U 23091A   25279.51954839  .00000057  00000+0  43830-4 0  9992
2 57166  98.6484 334.1967 0004044 171.7644 188.3602 14.24014195118415
TIANMU-1 07             
1 57399U 23101A   25279.50874934  .00008013  00000+0  30779-3 0  9995
2 57399  97.2985 330.8694 0002986 337.2993  22.8113 15.26700109122899
TIANMU-1 08             
1 57400U 23101B   25279.47510969  .00007970  00000+0  30615-3 0  9999
2 57400  97.2973 330.6460 0004994 333.9245  26.1742 15.26692510122882
TIANMU-1 09             
1 57401U 23101C   25279.52771468  .00007962  00000+0  30602-3 0  9996
2 57401  97.2930 330.2487 0004241 336.0277  24.0764 15.26678317122896
TIANMU-1 10             
1 57402U 23101D   25279.49593747  .00008622  00000+0  33117-3 0  9993
2 57402  97.3011 330.9967 0006008 331.3910  28.6999 15.26664926122883
FENGYUN 3F              
1 57490U 23111A   25279.50525248  .00000152  00000+0  92110-4 0  9993
2 57490  98.7163 348.8581 0001521  97.0282 263.1067 14.19867943112860
ARKTIKA-M 2             
1 58584U 23198A   25273.05302128  .00000143  00000+0  00000+0 0  9999
2 58584  63.2269 182.9022 6863775 268.4071  18.7501  2.00603125 13100
TIANMU-1 11             
1 58645U 23205A   25279.51299751  .00006431  00000+0  27245-3 0  9990
2 58645  97.3675 300.3460 0009890 168.3333 191.8135 15.23451069 98850
TIANMU-1 12             
1 58646U 23205B   25279.53540814  .00007210  00000+0  30624-3 0  9993
2 58646  97.3662 300.1951 0008648 151.5793 208.5918 15.23330671 98843
TIANMU-1 13             
1 58647U 23205C   25279.50362907  .00006664  00000+0  28321-3 0  9999
2 58647  97.3691 300.3388 0009416 134.9294 225.2708 15.23331727 98832
TIANMU-1 14             
1 58648U 23205D   25279.48643179  .00007013  00000+0  29792-3 0  9992
2 58648  97.3621 299.7331 0010127 139.5163 220.6829 15.23321644 98832
TIANMU-1 19             
1 58660U 23208A   25279.57503684  .00010852  00000+0  42305-3 0  9995
2 58660  97.4363  30.8513 0006510 128.5033 231.6790 15.26107437 98576
TIANMU-1 20             
1 58661U 23208B   25279.54859351  .00010450  00000+0  39292-3 0  9993
2 58661  97.4299  31.2069 0008732 139.1427 221.0468 15.27305008 98636
TIANMU-1 21             
1 58662U 23208C   25279.52065916  .00012606  00000+0  44238-3 0  9999
2 58662  97.4345  32.8025 0008292 135.7463 224.4442 15.29529318 98713
TIANMU-1 22             
1 58663U 23208D   25279.56649324  .00009739  00000+0  38167-3 0  9992
2 58663  97.4357  30.9270 0004837 146.3488 213.8059 15.25970965 98589
TIANMU-1 15             
1 58700U 24004A   25279.55327788  .00007886  00000+0  33412-3 0  9994
2 58700  97.4662 101.3101 0006916 156.2282 203.9276 15.23403783 97114
TIANMU-1 16             
1 58701U 24004B   25279.53451953  .00008091  00000+0  34224-3 0  9996
2 58701  97.4599 100.7438 0007120 161.9847 198.1644 15.23449735 97119
TIANMU-1 17             
1 58702U 24004C   25279.51541321  .00008171  00000+0  34638-3 0  9992
2 58702  97.4634 101.1127 0006148 152.0138 208.1430 15.23376755 97108
TIANMU-1 18             
1 58703U 24004D   25279.49925301  .00007472  00000+0  31616-3 0  9990
2 58703  97.4652 101.2750 0005909 149.2365 210.9219 15.23472382 97105
INSAT-3DS               
1 58990U 24033A   25279.55609921 -.00000154  00000+0  00000+0 0  9994
2 58990   0.0383  77.8695 0001579 124.6893  95.1938  1.00270583 44520
METEOR-M2 4             
1 59051U 24039A   25279.52682436  .00000060  00000+0  46677-4 0  9998
2 59051  98.6643 237.5281 0006959 174.9870 185.1379 14.22385640 83203
GOES 19                 
1 60133U 24119A   25279.47979100 -.00000246  00000+0  00000+0 0  9993
2 60133   0.0196  17.3104 0000767 249.4982 206.1431  1.00272160  4421
FENGYUN 3H              
1 65815U 25219A   25272.38650209  .00000072  00000+0  50541-4 0  9992
2 65815  98.6446 213.6391 0012633 208.3944 151.6548 14.23785724   377
